HTV-X1                  
1 66174U 25241A   26084.82275622  .00001693  00000+0  64996-4 0  9998
2 66174  51.6394 355.3419 0007339 234.0271 126.0030 15.32410776 23413
SZ-21 MODULE            
1 66515U 25246C   26084.41173396  .00034230  00000+0  28093-3 0  9992
2 66515  41.4741 106.4894 0001002 208.3621 151.7166 15.69739008 20549
SHENZHOU-22             
1 66645U 25272A   26084.83710235  .00022588  00000+0  25952-3 0  9994
2 66645  41.4667 109.8475 0004448  22.3282 337.7750 15.61486977280220
SOYUZ-MS 28             
1 66664U 25275A   26084.84151545  .00012012  00000+0  22938-3 0  9994
2 66664  51.6341 352.5134 0006235 232.7336 127.3084 15.48540672558897
DUPLEX                  
1 66906U 98067XS  26084.44229608  .00025000  00000+0  34288-3 0  9996
2 66906  51.6301 350.6000 0003161 180.1942 179.9049 15.57191186 17589
ISS OBJECT XT           
1 66907U 98067XT  26084.09513735  .00186952  00000+0  12194-2 0  9990
2 66907  51.6251 346.7505 0005433 178.6760 181.4255 15.74759549 17606
ISS OBJECT XU           
1 66908U 98067XU  26084.09189041  .00194341  00000+0  12552-2 0  9999
2 66908  51.6242 346.7246 0005663 178.7576 181.3439 15.74960927 17607
SILVERSAT               
1 66909U 98067XV  26084.87967962  .00253325  00000+0  12960-2 0  9993
2 66909  51.6219 341.4736 0006463 189.5694 170.5186 15.80017533 17745
ISS OBJECT XW           
1 66910U 98067XW  26084.09907322  .00165061  00000+0  11390-2 0  9998
2 66910  51.6237 346.7691 0005900 178.0265 182.0758 15.73519886 17605
ISS OBJECT XX           
1 66911U 98067XX  26084.01343127  .00375397  00000+0  14891-2 0  9992
2 66911  51.6196 344.6599 0007914 187.2410 172.8480 15.85123698 17610
ISS OBJECT XY           
1 66912U 98067XY  26084.03256471  .00095055  00000+0  87845-3 0  9990
2 66912  51.6274 349.3528 0004061 177.5778 182.5238 15.66770073 17557
KNACKSAT-2              
1 67683U 98067XZ  26084.75570766  .00039524  00000+0  62196-3 0  9992
2 67683  51.6320 351.9428 0009865 244.0094 115.9880 15.53147320  7282
